*******************************************************************************
Ephemeris / WWW_USER Mon Mar 10 08:39:52 2025 Pasadena, USA      / Horizons    
*******************************************************************************
Target body name: ASASSN (C/2017 O1)              {source: JPL#21}
Center body name: Earth (399)                     {source: DE441}
Center-site name: Mauna Kea
*******************************************************************************
Start time      : A.D. 2018-Nov-29 03:51:00.0000 UT      
Stop  time      : A.D. 2018-Nov-29 16:29:00.0000 UT      
Step-size       : 1 minutes
*******************************************************************************
Target pole/equ : undefined
Target radii    : undefined                                                    
Center geodetic : 204.5278, 19.8260847, 4.21024   {E-lon(deg),Lat(deg),Alt(km)}
Center cylindric: 204.5278, 6006.35451, 2151.0229 {E-lon(deg),Dxy(km),Dz(km)}
Center pole/equ : ITRF93                          {East-longitude positive}
Center radii    : 6378.137, 6378.137, 6356.752 km {Equator_a, b, pole_c}       
Target primary  : Sun
Vis. interferer : MOON (R_eq= 1737.400) km        {source: DE441}
Rel. light bend : Sun                             {source: DE441}
Rel. lght bnd GM: 1.3271E+11 km^3/s^2                                          
Small-body perts: Yes                             {source: SB441-N16}
Atmos refraction: NO (AIRLESS)
RA format       : HMS
Time format     : CAL 
Calendar mode   : Mixed Julian/Gregorian
RTS-only print  : NO       
EOP file        : eop.250307.p250603                                           
EOP coverage    : DATA-BASED 1962-JAN-20 TO 2025-MAR-07. PREDICTS-> 2025-JUN-02
Units conversion: 1 au= 149597870.700 km, c= 299792.458 km/s, 1 day= 86400.0 s 
Table cut-offs 1: Elevation (-90.0deg=NO ),Airmass (>38.000=NO), Daylight (YES)
Table cut-offs 2: Solar elongation (  0.0,180.0=NO ),Local Hour Angle( 0.0=NO )
Table cut-offs 3: RA/DEC angular rate (     0.0=NO )                           
*******************************************************************************
Initial IAU76/J2000 heliocentric ecliptic osculating elements (au, days, deg.):
  EPOCH=  2458039.5 ! 2017-Oct-13.0000000 (TDB)    RMSW= n.a.                  
   EC= .9964254882304144   QR= 1.498687032290766   TP= 2458041.2851755521      
   OM= 25.80948799039273   W= 20.90785287564418    IN= 39.84841297991522       
  Equivalent ICRF heliocentric cartesian coordinates (au, au/d):
   X= 1.103880574170232E+00  Y= 7.544591652134763E-01  Z= 6.774428678789283E-01
  VX=-1.240653547490291E-02 VY= 4.322571932715848E-03 VZ= 1.488380440184248E-02
Comet physical (GM= km^3/s^2; RAD= km):                                        
   GM= n.a.                RAD= n.a.                                           
   M1=  12.4     M2=  n.a.     k1=  8.75   k2= n.a.     PHCOF= n.a.            
*******************************************************************************
 Date__(UT)__HR:MN     R.A._________(ICRF)_________DEC
******************************************************
$$SOE
 2018-Nov-29 05:56     12 42 18.953343 +23 32 13.93170
 2018-Nov-29 05:57     12 42 18.974584 +23 32 13.90977
 2018-Nov-29 05:58     12 42 18.995824 +23 32 13.88786
 2018-Nov-29 05:59     12 42 19.017065 +23 32 13.86596
 2018-Nov-29 06:00     12 42 19.038305 +23 32 13.84407
 2018-Nov-29 06:01     12 42 19.059546 +23 32 13.82220
 2018-Nov-29 06:02     12 42 19.080786 +23 32 13.80035
 2018-Nov-29 06:03     12 42 19.102027 +23 32 13.77851
 2018-Nov-29 06:04     12 42 19.123268 +23 32 13.75668
 2018-Nov-29 06:05     12 42 19.144508 +23 32 13.73487
 2018-Nov-29 06:06     12 42 19.165749 +23 32 13.71307
 2018-Nov-29 06:07     12 42 19.186989 +23 32 13.69129
 2018-Nov-29 06:08     12 42 19.208230 +23 32 13.66952
 2018-Nov-29 06:09     12 42 19.229470 +23 32 13.64777
 2018-Nov-29 06:10     12 42 19.250711 +23 32 13.62603
 2018-Nov-29 06:11     12 42 19.271951 +23 32 13.60431
 2018-Nov-29 06:12     12 42 19.293191 +23 32 13.58260
 2018-Nov-29 06:13     12 42 19.314431 +23 32 13.56091
 2018-Nov-29 06:14     12 42 19.335671 +23 32 13.53923
 2018-Nov-29 06:15     12 42 19.356911 +23 32 13.51757
 2018-Nov-29 06:16     12 42 19.378151 +23 32 13.49592
 2018-Nov-29 06:17     12 42 19.399391 +23 32 13.47429
 2018-Nov-29 06:18     12 42 19.420630 +23 32 13.45267
 2018-Nov-29 06:19     12 42 19.441870 +23 32 13.43107
 2018-Nov-29 06:20     12 42 19.463109 +23 32 13.40948
 2018-Nov-29 06:21     12 42 19.484348 +23 32 13.38791
 2018-Nov-29 06:22     12 42 19.505587 +23 32 13.36635
 2018-Nov-29 06:23     12 42 19.526826 +23 32 13.34481
 2018-Nov-29 06:24     12 42 19.548064 +23 32 13.32328
 2018-Nov-29 06:25     12 42 19.569303 +23 32 13.30177
 2018-Nov-29 06:26     12 42 19.590541 +23 32 13.28027
 2018-Nov-29 06:27     12 42 19.611779 +23 32 13.25879
 2018-Nov-29 06:28     12 42 19.633016 +23 32 13.23732
 2018-Nov-29 06:29     12 42 19.654254 +23 32 13.21586
 2018-Nov-29 06:30     12 42 19.675491 +23 32 13.19443
 2018-Nov-29 06:31     12 42 19.696728 +23 32 13.17300
 2018-Nov-29 06:32     12 42 19.717964 +23 32 13.15159
 2018-Nov-29 06:33     12 42 19.739201 +23 32 13.13020
 2018-Nov-29 06:34     12 42 19.760437 +23 32 13.10882
 2018-Nov-29 06:35     12 42 19.781673 +23 32 13.08746
 2018-Nov-29 06:36     12 42 19.802908 +23 32 13.06611
 2018-Nov-29 06:37     12 42 19.824143 +23 32 13.04477
 2018-Nov-29 06:38     12 42 19.845378 +23 32 13.02346
 2018-Nov-29 06:39     12 42 19.866612 +23 32 13.00215
 2018-Nov-29 06:40     12 42 19.887847 +23 32 12.98086
 2018-Nov-29 06:41     12 42 19.909080 +23 32 12.95959
 2018-Nov-29 06:42     12 42 19.930314 +23 32 12.93833
 2018-Nov-29 06:43     12 42 19.951547 +23 32 12.91709
 2018-Nov-29 06:44     12 42 19.972779 +23 32 12.89586
 2018-Nov-29 06:45     12 42 19.994012 +23 32 12.87464
 2018-Nov-29 06:46     12 42 20.015243 +23 32 12.85344
 2018-Nov-29 06:47     12 42 20.036475 +23 32 12.83226
 2018-Nov-29 06:48     12 42 20.057706 +23 32 12.81109
 2018-Nov-29 06:49     12 42 20.078936 +23 32 12.78993
 2018-Nov-29 06:50     12 42 20.100166 +23 32 12.76879
 2018-Nov-29 06:51     12 42 20.121396 +23 32 12.74767
 2018-Nov-29 06:52     12 42 20.142625 +23 32 12.72656
 2018-Nov-29 06:53     12 42 20.163854 +23 32 12.70546
 2018-Nov-29 06:54     12 42 20.185082 +23 32 12.68438
 2018-Nov-29 06:55     12 42 20.206310 +23 32 12.66332
 2018-Nov-29 06:56     12 42 20.227537 +23 32 12.64227
 2018-Nov-29 06:57     12 42 20.248764 +23 32 12.62123
 2018-Nov-29 06:58     12 42 20.269990 +23 32 12.60021
 2018-Nov-29 06:59     12 42 20.291216 +23 32 12.57921
 2018-Nov-29 07:00     12 42 20.312441 +23 32 12.55822
 2018-Nov-29 07:01     12 42 20.333665 +23 32 12.53724
 2018-Nov-29 07:02     12 42 20.354889 +23 32 12.51628
 2018-Nov-29 07:03     12 42 20.376113 +23 32 12.49533
 2018-Nov-29 07:04     12 42 20.397336 +23 32 12.47440
 2018-Nov-29 07:05     12 42 20.418558 +23 32 12.45348
 2018-Nov-29 07:06     12 42 20.439780 +23 32 12.43258
 2018-Nov-29 07:07     12 42 20.461001 +23 32 12.41170
 2018-Nov-29 07:08     12 42 20.482221 +23 32 12.39082
 2018-Nov-29 07:09     12 42 20.503441 +23 32 12.36997
 2018-Nov-29 07:10     12 42 20.524660 +23 32 12.34912
 2018-Nov-29 07:11     12 42 20.545879 +23 32 12.32830
 2018-Nov-29 07:12     12 42 20.567097 +23 32 12.30748
 2018-Nov-29 07:13     12 42 20.588314 +23 32 12.28669
 2018-Nov-29 07:14     12 42 20.609531 +23 32 12.26590
 2018-Nov-29 07:15     12 42 20.630747 +23 32 12.24513
 2018-Nov-29 07:16     12 42 20.651962 +23 32 12.22438
 2018-Nov-29 07:17     12 42 20.673176 +23 32 12.20364
 2018-Nov-29 07:18     12 42 20.694390 +23 32 12.18292
 2018-Nov-29 07:19     12 42 20.715603 +23 32 12.16221
 2018-Nov-29 07:20     12 42 20.736816 +23 32 12.14151
 2018-Nov-29 07:21     12 42 20.758027 +23 32 12.12083
 2018-Nov-29 07:22     12 42 20.779238 +23 32 12.10017
 2018-Nov-29 07:23     12 42 20.800448 +23 32 12.07952
 2018-Nov-29 07:24     12 42 20.821658 +23 32 12.05888
 2018-Nov-29 07:25     12 42 20.842866 +23 32 12.03826
 2018-Nov-29 07:26     12 42 20.864074 +23 32 12.01765
 2018-Nov-29 07:27     12 42 20.885281 +23 32 11.99706
 2018-Nov-29 07:28     12 42 20.906487 +23 32 11.97648
 2018-Nov-29 07:29     12 42 20.927692 +23 32 11.95592
 2018-Nov-29 07:30     12 42 20.948897 +23 32 11.93537
 2018-Nov-29 07:31     12 42 20.970101 +23 32 11.91484
 2018-Nov-29 07:32     12 42 20.991304 +23 32 11.89432
 2018-Nov-29 07:33     12 42 21.012506 +23 32 11.87381
 2018-Nov-29 07:34     12 42 21.033707 +23 32 11.85332
 2018-Nov-29 07:35     12 42 21.054907 +23 32 11.83285
 2018-Nov-29 07:36     12 42 21.076106 +23 32 11.81238
 2018-Nov-29 07:37     12 42 21.097305 +23 32 11.79194
 2018-Nov-29 07:38     12 42 21.118503 +23 32 11.77151
 2018-Nov-29 07:39     12 42 21.139699 +23 32 11.75109
 2018-Nov-29 07:40     12 42 21.160895 +23 32 11.73068
 2018-Nov-29 07:41     12 42 21.182090 +23 32 11.71030
 2018-Nov-29 07:42     12 42 21.203284 +23 32 11.68992
 2018-Nov-29 07:43     12 42 21.224477 +23 32 11.66956
 2018-Nov-29 07:44     12 42 21.245669 +23 32 11.64922
 2018-Nov-29 07:45     12 42 21.266860 +23 32 11.62888
 2018-Nov-29 07:46     12 42 21.288050 +23 32 11.60857
 2018-Nov-29 07:47     12 42 21.309239 +23 32 11.58827
 2018-Nov-29 07:48     12 42 21.330428 +23 32 11.56798
 2018-Nov-29 07:49     12 42 21.351615 +23 32 11.54770
 2018-Nov-29 07:50     12 42 21.372801 +23 32 11.52744
 2018-Nov-29 07:51     12 42 21.393986 +23 32 11.50720
 2018-Nov-29 07:52     12 42 21.415170 +23 32 11.48697
 2018-Nov-29 07:53     12 42 21.436353 +23 32 11.46675
 2018-Nov-29 07:54     12 42 21.457535 +23 32 11.44655
 2018-Nov-29 07:55     12 42 21.478716 +23 32 11.42636
 2018-Nov-29 07:56     12 42 21.499896 +23 32 11.40618
 2018-Nov-29 07:57     12 42 21.521075 +23 32 11.38602
 2018-Nov-29 07:58     12 42 21.542253 +23 32 11.36588
 2018-Nov-29 07:59     12 42 21.563430 +23 32 11.34575
 2018-Nov-29 08:00     12 42 21.584605 +23 32 11.32563
